LANDSAT 9               
1 49260U 21088A   23337.15853551  .00000883  00000+0  20601-3 0  9991
2 49260  98.2127  44.8725 0001136  91.0550 269.0778 14.57122427115992
